NORAD_CAT_ID,OBJECT_NAME,OBJECT_TYPE,EPOCH,MEAN_MOTION,ECCENTRICITY,INCLINATION,RA_OF_ASC_NODE,ARG_OF_PERICENTER,MEAN_ANOMALY,BSTAR,MEAN_MOTION_DOT,MEAN_MOTION_DDOT,TLE_LINE0,TLE_LINE1,TLE_LINE2,SEMIMAJOR_AXIS,PERIOD,APOGEE,PERIGEE,DECAYED
50820.0,STARLINK-3339,PAYLOAD,2023-09-14 09:27:27,15.08825149,0.000168,53.2151,282.1323,93.3747,266.7437,-0.00012062,-2.206e-05,0.0,0 STARLINK-3339,1 50820U 22001T   23257.39407093 -.00002206  00000-0 -12062-3 0  9990,2 50820  53.2151 282.1323 0001680  93.3747 266.7437 15.08825149 93430,6917.926,95.438,540.953,538.629,0.0
50820.0,STARLINK-3339,PAYLOAD,2023-09-15 01:21:18,15.0885251,0.0001461,53.2155,279.1571,102.2461,257.8694,0.00044471,6.799e-05,0.0,0 STARLINK-3339,1 50820U 22001T   23258.05645926  .00006799  00000-0  44471-3 0  9991,2 50820  53.2155 279.1571 0001461 102.2461 257.8694 15.08852510 94816,6917.842,95.437,540.718,538.696,0.0
50820.0,STARLINK-3339,PAYLOAD,2023-09-15 10:53:37,15.08837846,0.0001383,53.2152,277.378,73.3643,286.7501,6.7411e-05,7.85e-06,0.0,0 STARLINK-3339,1 50820U 22001T   23258.45390361  .00000785  00000-0  67411-4 0  9994,2 50820  53.2152 277.3780 0001383  73.3643 286.7501 15.08837846 93595,6917.887,95.438,540.709,538.795,0.0
50820.0,STARLINK-3339,PAYLOAD,2023-09-16 07:33:38,15.08838839,0.0001588,53.2153,273.5106,75.0308,285.086,0.00025674,3.8e-05,0.0,0 STARLINK-3339,1 50820U 22001T   23259.31502793  .00003800  00000-0  25674-3 0  9999,2 50820  53.2153 273.5106 0001588  75.0308 285.0860 15.08838839 93728,6917.884,95.438,540.847,538.65,0.0
50820.0,STARLINK-3339,PAYLOAD,2023-09-17 01:02:52,15.08849034,0.0001501,53.2149,270.2383,79.5764,280.5398,-0.00010899,-2.023e-05,0.0,0 STARLINK-3339,1 50820U 22001T   23260.04366427 -.00002023  00000-0 -10899-3 0  9994,2 50820  53.2149 270.2383 0001501  79.5764 280.5398 15.08849034 95114,6917.853,95.437,540.756,538.679,0.0
50820.0,STARLINK-3339,PAYLOAD,2023-09-17 07:24:25,15.0884752,0.0001488,53.2148,269.0483,79.7978,280.3182,3.3936e-05,2.52e-06,0.0,0 STARLINK-3339,1 50820U 22001T   23260.30862510  .00000252  00000-0  33936-4 0  9995,2 50820  53.2148 269.0483 0001488  79.7978 280.3182 15.08847520 93871,6917.857,95.437,540.752,538.693,0.0
50820.0,STARLINK-3339,PAYLOAD,2023-09-18 00:53:40,15.08842212,0.0001489,53.2147,265.7765,88.3455,271.7707,0.00013745,1.9e-05,0.0,0 STARLINK-3339,1 50820U 22001T   23261.03726898  .00001900  00000-0  13745-3 0  9990,2 50820  53.2147 265.7765 0001489  88.3455 271.7707 15.08842212 95268,6917.874,95.437,540.769,538.709,0.0
50820.0,STARLINK-3339,PAYLOAD,2023-09-18 07:15:12,15.0884,0.0001598,53.2162,264.5876,103.985,256.132,8.1502e-05,1.009e-05,0.0,0 STARLINK-3339,1 50820U 22001T   23261.30222871  .00001009  00000-0  81502-4 0  9999,2 50820  53.2162 264.5876 0001598 103.9850 256.1320 15.08840000 94023,6917.88,95.438,540.851,538.64,0.0
50820.0,STARLINK-3339,PAYLOAD,2023-09-18 16:47:31,15.08839844,0.0001586,53.217,262.8023,107.164,252.9526,8.2388e-05,1.023e-05,0.0,0 STARLINK-3339,1 50820U 22001T   23261.69966952  .00001023  00000-0  82388-4 0  9995,2 50820  53.2170 262.8023 0001586 107.1640 252.9526 15.08839844 94089,6917.881,95.438,540.843,538.649,0.0
50820.0,STARLINK-3339,PAYLOAD,2023-09-19 10:16:45,15.08850385,0.0001559,53.2161,259.5298,106.4785,253.6378,0.00020681,3.006e-05,0.0,0 STARLINK-3339,1 50820U 22001T   23262.42830187  .00003006  00000-0  20681-3 0  9997,2 50820  53.2161 259.5298 0001559 106.4785 253.6378 15.08850385 95478,6917.849,95.437,540.792,538.635,0.0
50820.0,STARLINK-3339,PAYLOAD,2023-09-19 16:38:17,15.08844594,0.0001524,53.2162,258.3371,81.2188,278.8977,7.8001e-05,9.54e-06,0.0,0 STARLINK-3339,1 50820U 22001T   23262.69326386  .00000954  00000-0  78001-4 0  9996,2 50820  53.2162 258.3371 0001524  81.2188 278.8977 15.08844594 95511,6917.866,95.437,540.786,538.677,0.0
50820.0,STARLINK-3339,PAYLOAD,2023-09-20 05:21:24,15.08828891,0.000161,53.2168,255.9651,98.3954,261.722,-8.8261e-05,-1.692e-05,0.0,0 STARLINK-3339,1 50820U 22001T   23263.22319585 -.00001692  00000-0 -88261-4 0  9990,2 50820  53.2168 255.9651 0001610  98.3954 261.7220 15.08828891 95599,6917.914,95.438,540.893,538.666,0.0
50820.0,STARLINK-3339,PAYLOAD,2023-09-20 08:32:10,15.08830155,0.0001577,53.2168,255.3706,98.1011,262.016,-6.3548e-05,-1.299e-05,0.0,0 STARLINK-3339,1 50820U 22001T   23263.35567608 -.00001299  00000-0 -63548-4 0  9999,2 50820  53.2168 255.3706 0001577  98.1011 262.0160 15.08830155 94332,6917.91,95.438,540.866,538.685,0.0
50820.0,STARLINK-3339,PAYLOAD,2023-09-20 16:29:06,15.08832709,0.000165,53.2172,253.8827,95.3067,264.8113,1.8318e-05,3e-08,0.0,0 STARLINK-3339,1 50820U 22001T   23263.68687712  .00000003  00000-0  18318-4 0  9999,2 50820  53.2172 253.8827 0001650  95.3067 264.8113 15.08832709 94386,6917.903,95.438,540.909,538.626,0.0
50820.0,STARLINK-3339,PAYLOAD,2023-09-21 00:26:01,15.08838016,0.0001593,53.2171,252.3972,98.6472,261.4701,3.4679e-05,2.64e-06,0.0,0 STARLINK-3339,1 50820U 22001T   23264.01807548  .00000264  00000-0  34679-4 0  9995,2 50820  53.2171 252.3972 0001593  98.6472 261.4701 15.08838016 95713,6917.886,95.438,540.853,538.649,0.0
50820.0,STARLINK-3339,PAYLOAD,2023-09-21 08:22:57,15.08843846,0.0001464,53.2159,250.9063,89.6446,270.4714,0.0002432,3.585e-05,0.0,0 STARLINK-3339,1 50820U 22001T   23264.34927396  .00003585  00000-0  24320-3 0  9995,2 50820  53.2159 250.9063 0001464  89.6446 270.4714 15.08843846 94486,6917.869,95.437,540.746,538.721,0.0
50820.0,STARLINK-3339,PAYLOAD,2023-09-21 16:19:53,15.08841408,0.0001447,53.2155,249.4209,90.997,269.1187,0.00033661,5.073e-05,0.0,0 STARLINK-3339,1 50820U 22001T   23264.68047682  .00005073  00000-0  33661-3 0  9995,2 50820  53.2155 249.4209 0001447  90.9970 269.1187 15.08841408 94532,6917.876,95.437,540.742,538.74,0.0
50820.0,STARLINK-3339,PAYLOAD,2023-09-22 05:02:58,15.08849055,0.0001399,53.215,247.0416,93.3613,266.7539,0.00040429,6.154e-05,0.0,0 STARLINK-3339,1 50820U 22001T   23265.21039464  .00006154  00000-0  40429-3 0  9995,2 50820  53.2150 247.0416 0001399  93.3613 266.7539 15.08849055 95898,6917.853,95.437,540.686,538.75,0.0
50820.0,STARLINK-3339,PAYLOAD,2023-09-22 06:38:21,15.08850667,0.0001409,53.215,246.7443,92.8067,267.3086,0.00042539,6.491e-05,0.0,0 STARLINK-3339,1 50820U 22001T   23265.27663407  .00006491  00000-0  42539-3 0  9999,2 50820  53.2150 246.7443 0001409  92.8067 267.3086 15.08850667 94628,6917.848,95.437,540.688,538.738,0.0
50820.0,STARLINK-3339,PAYLOAD,2023-09-22 16:10:40,15.08846992,0.0001474,53.2157,244.958,92.2405,267.8756,0.00027356,4.069e-05,0.0,0 STARLINK-3339,1 50820U 22001T   23265.67407478  .00004069  00000-0  27356-3 0  9996,2 50820  53.2157 244.9580 0001474  92.2405 267.8756 15.08846992 95962,6917.859,95.437,540.744,538.704,0.0
50820.0,STARLINK-3339,PAYLOAD,2023-09-23 08:04:31,15.0884948,0.0001529,53.2156,241.9841,95.617,264.4996,0.00029506,4.412e-05,0.0,0 STARLINK-3339,1 50820U 22001T   23266.33647334  .00004412  00000-0  29506-3 0  9998,2 50820  53.2156 241.9841 0001529  95.6170 264.4996 15.08849480 94788,6917.851,95.437,540.774,538.659,0.0
50820.0,STARLINK-3339,PAYLOAD,2023-09-23 16:01:27,15.08844474,0.0001513,53.2153,240.4967,97.818,262.2984,0.00019622,2.837e-05,0.0,0 STARLINK-3339,1 50820U 22001T   23266.66767443  .00002837  00000-0  19622-3 0  9995,2 50820  53.2153 240.4967 0001513  97.8180 262.2984 15.08844474 96116,6917.867,95.437,540.778,538.685,0.0
50820.0,STARLINK-3339,PAYLOAD,2023-09-24 07:55:18,15.08846296,0.0001526,53.2158,237.523,98.5165,261.6,0.00010613,1.402e-05,0.0,0 STARLINK-3339,1 50820U 22001T   23267.33007319  .00001402  00000-0  10613-3 0  9997,2 50820  53.2158 237.5230 0001526  98.5165 261.6000 15.08846296 94930,6917.861,95.437,540.782,538.67,0.0
50820.0,STARLINK-3339,PAYLOAD,2023-09-25 02:59:56,15.08839248,0.0001518,53.2162,233.9537,96.3836,263.7329,8.6693e-05,1.092e-05,0.0,0 STARLINK-3339,1 50820U 22001T   23268.12495767  .00001092  00000-0  86693-4 0  9990,2 50820  53.2162 233.9537 0001518  96.3836 263.7329 15.08839248 96339,6917.883,95.438,540.798,538.698,0.0
50820.0,STARLINK-3339,PAYLOAD,2023-09-25 07:46:05,15.08846607,0.0001494,53.2162,233.0619,91.5841,268.5322,0.00018149,2.602e-05,0.0,0 STARLINK-3339,1 50820U 22001T   23268.32367469  .00002602  00000-0  18149-3 0  9997,2 50820  53.2162 233.0619 0001494  91.5841 268.5322 15.08846607 95081,6917.86,95.437,540.759,538.692,0.0
50820.0,STARLINK-3339,PAYLOAD,2023-09-26 02:50:42,15.0885682,0.0001412,53.2158,229.4954,86.9735,273.1419,0.00035555,5.378e-05,0.0,0 STARLINK-3339,1 50820U 22001T   23269.11854725  .00005378  00000-0  35555-3 0  9994,2 50820  53.2158 229.4954 0001412  86.9735 273.1419 15.08856820 95208,6917.829,95.436,540.671,538.717,0.0
50820.0,STARLINK-3339,PAYLOAD,2023-09-26 21:55:20,15.08842011,0.0001314,53.2157,225.9264,83.4605,276.6537,-1.8601e-05,-5.84e-06,0.0,0 STARLINK-3339,1 50820U 22001T   23269.91343111 -.00000584  00000-0 -18601-4 0  9994,2 50820  53.2157 225.9264 0001314  83.4605 276.6537 15.08842011 95320,6917.874,95.437,540.648,538.83,0.0
50820.0,STARLINK-3339,PAYLOAD,2023-09-27 02:41:29,15.08840042,0.0001711,53.2163,225.0366,121.3973,238.7187,-0.00034292,-5.742e-05,0.0,0 STARLINK-3339,1 50820U 22001T   23270.11214944 -.00005742  00000-0 -34292-3 0  9993,2 50820  53.2163 225.0366 0001711 121.3973 238.7187 15.08840042 96639,6917.88,95.438,540.929,538.562,0.0
50820.0,STARLINK-3339,PAYLOAD,2023-09-27 07:27:39,15.08833867,0.0001687,53.2159,224.145,113.8846,246.2323,-0.00033942,-5.685e-05,0.0,0 STARLINK-3339,1 50820U 22001T   23270.31086984 -.00005685  00000-0 -33942-3 0  9993,2 50820  53.2159 224.1450 0001687 113.8846 246.2323 15.08833867 95389,6917.899,95.438,540.931,538.597,0.0
50820.0,STARLINK-3339,PAYLOAD,2023-09-27 13:49:12,15.08827232,0.0001249,53.2153,222.9526,81.6853,278.4281,-0.00019195,-3.34e-05,0.0,0 STARLINK-3339,1 50820U 22001T   23270.57584140 -.00003340  00000-0 -19195-3 0  9998,2 50820  53.2153 222.9526 0001249  81.6853 278.4281 15.08827232 96703,6917.919,95.438,540.648,538.92,0.0
